ONEWEB-0327             
1 49196U 21083L   23254.29015709  .00000178  00000+0  41835-3 0  9991
2 49196  87.9292 176.2881 0001468  71.9422 288.1870 13.18682814 98200
ONEWEB-0328             
1 49197U 21083M   23253.80235398  .00000269  00000+0  70064-3 0  9993
2 49197  87.9082 161.2500 0001860  66.6822 293.4502 13.13468625 99558
ONEWEB-0331             
1 49198U 21083N   23253.77693820  .00000031  00000+0  45796-4 0  9990
2 49198  87.9230 176.4211 0001728  70.5351 289.5968 13.18693076 98124
ONEWEB-0333             
1 49199U 21083P   23253.79704477  .00000178  00000+0  45339-3 0  9998
2 49199  87.9082 161.2533 0002045  79.1359 281.0000 13.13473845 99563
ONEWEB-0334             
1 49200U 21083Q   23253.66689661 -.00000003  00000+0 -39822-4 0  9994
2 49200  87.9185 115.6902 0002282 100.3943 259.7447 13.20769993104690
ONEWEB-0335             
1 49201U 21083R   23254.24989455 -.00000009  00000+0 -60345-4 0  9994
2 49201  87.9079 161.1534 0001937  70.3449 289.7889 13.13471967 99636
ONEWEB-0336             
1 49202U 21083S   23254.29433007 -.00000011  00000+0 -65003-4 0  9996
2 49202  87.9082 161.1418 0001945  78.3477 281.7870 13.13471652 99644
ONEWEB-0337             
1 49203U 21083T   23253.25111796 -.00000096  00000+0 -29833-3 0  9993
2 49203  87.9081 161.3541 0001910  69.3336 290.7998 13.13472687 98200
